OBJECT_NAME,OBJECT_ID,EPOCH,MEAN_MOTION,ECCENTRICITY,INCLINATION,RA_OF_ASC_NODE,ARG_OF_PERICENTER,MEAN_ANOMALY,EPHEMERIS_TYPE,CLASSIFICATION_TYPE,NORAD_CAT_ID,ELEMENT_SET_NO,REV_AT_EPOCH,BSTAR,MEAN_MOTION_DOT,MEAN_MOTION_DDOT
KUIPER-00174,2025-217AB,2026-06-06T20:07:54.902496,14.79926829,.00006455,51.9047,353.9356,103.6828,256.4206,0,U,65787,999,3828,.1881E-3,.1213E-4,0
KUIPER-00176,2025-217AC,2026-06-06T06:46:40.186848,14.79938603,.00005048,51.8999,11.3408,113.6443,246.4573,0,U,65788,999,3799,.2639208E-3,.1792E-4,0
STARLINK-35330,2025-218A,2026-06-06T20:45:43.292160,15.05663496,.0001487,97.3960,20.1005,99.5318,260.6078,0,U,65791,999,3838,.62336241E-3,.8951E-4,0
STARLINK-35373,2025-218B,2026-06-06T13:35:05.218368,15.05654228,.0002113,97.3951,19.8943,58.4630,301.6804,0,U,65792,999,3834,.87332237E-3,.12567E-3,0
STARLINK-35383,2025-218C,2026-06-06T14:46:52.131360,15.05659166,.00024278,97.3944,19.9846,89.0830,271.0675,0,U,65793,999,3835,.24394886E-3,.3465E-4,0
STARLINK-35378,2025-218D,2026-06-06T20:33:46.199808,15.05655705,.0001913,97.3976,20.1172,54.6930,305.4476,0,U,65794,999,3838,.37058449E-3,.5294E-4,0
STARLINK-35406,2025-218E,2026-06-06T13:59:00.602304,15.05654352,.00018278,97.3977,19.8757,65.9284,294.2135,0,U,65795,999,3834,.30590299E-3,.4359E-4,0
STARLINK-35390,2025-218F,2026-06-06T14:58:49.823328,15.05661953,.00025716,97.3951,19.9740,79.2115,280.9402,0,U,65796,999,3835,.28817416E-3,.4104E-4,0
STARLINK-35412,2025-218G,2026-06-06T20:57:42.619680,15.05653982,.00023815,97.3954,20.2475,79.9094,280.2402,0,U,65797,999,3839,.52290503E-3,.7496E-4,0
STARLINK-35414,2025-218H,2026-06-06T13:47:01.819104,15.05724881,.0001361,97.4025,19.8830,92.7251,267.4132,0,U,65798,999,3834,.27893E-2,.40498E-3,0
STARLINK-35357,2025-218J,2026-06-06T13:55:01.312320,15.05662705,.00024788,97.3949,19.8760,92.7743,267.3768,0,U,65799,999,3834,.42827343E-3,.6129E-4,0
STARLINK-35300,2025-218K,2026-06-06T20:41:44.483424,15.05660184,.00020903,97.3941,20.1060,89.9736,270.1731,0,U,65800,999,3838,.25434744E-3,.3615E-4,0
STARLINK-35296,2025-218L,2026-06-06T14:42:52.844832,15.05660463,.00023198,97.3951,19.9858,92.7994,267.3498,0,U,65801,999,3835,.25289164E-3,.3594E-4,0
STARLINK-34919,2025-218M,2026-06-06T15:06:48.106080,15.05661025,.00020625,97.3946,19.9619,91.6045,268.5419,0,U,65802,999,3835,.30964732E-3,.4414E-4,0
STARLINK-35286,2025-218N,2026-06-06T20:37:45.412032,15.05655891,.0002147,97.3954,20.1098,89.9480,270.1993,0,U,65803,999,3838,.14624029E-3,.2053E-4,0
STARLINK-35266,2025-218P,2026-06-06T20:29:47.092992,15.05657826,.00028041,97.3954,20.1178,80.9504,279.2040,0,U,65804,999,3838,.14985961E-3,.2106E-4,0
STARLINK-35273,2025-218Q,2026-06-06T20:25:47.654400,15.05658088,.0001745,97.3958,20.1228,71.3025,288.8392,0,U,65805,999,3838,.2770911E-3,.3943E-4,0
STARLINK-35047,2025-218R,2026-06-06T13:43:03.872640,15.05643256,.000162,97.3990,19.8922,40.1224,320.0123,0,U,65806,999,3834,-.24339547E-3,-.3567E-4,0
STARLINK-35285,2025-218S,2026-06-06T13:51:01.921248,15.05661759,.00016363,97.3953,19.8776,58.7935,301.3453,0,U,65807,999,3834,.44043006E-3,.6305E-4,0
STARLINK-34580,2025-218T,2026-06-06T15:14:46.540896,15.05665225,.00021012,97.3946,19.9520,91.6744,268.4724,0,U,65808,999,3835,.13947842E-3,.1956E-4,0
STARLINK-35289,2025-218U,2026-06-06T15:02:48.866208,15.05666508,.00026377,97.3937,19.9677,81.6988,278.4539,0,U,65809,999,3835,.34806593E-3,.497E-4,0
STARLINK-35268,2025-218V,2026-06-06T14:50:50.708544,15.05651661,.00033106,97.3968,19.9802,61.7829,298.3733,0,U,65810,999,3835,-.16668739E-3,-.2463E-4,0
STARLINK-35224,2025-218W,2026-06-06T14:54:51.904512,15.05647909,.00025943,97.3952,19.9744,91.0293,269.1232,0,U,65811,999,3835,.42760653E-3,.6117E-4,0
STARLINK-35271,2025-218X,2026-06-06T14:38:53.605824,15.05662822,.00024857,97.3969,19.9928,87.1732,272.9780,0,U,65812,999,3835,.33477148E-3,.4777E-4,0
STARLINK-35215,2025-218Y,2026-06-06T20:53:43.342656,15.05656865,.00023807,97.3939,20.2503,84.7704,275.3795,0,U,65813,999,3839,.16731234E-3,.2358E-4,0
STARLINK-35157,2025-218Z,2026-06-06T22:25:27.110784,15.05644643,.00026566,97.3962,20.3194,102.3541,257.7984,0,U,65814,999,3840,-.10228136E-2,-.14784E-3,0
FENGYUN 3H,2025-219A,2026-06-06T16:22:49.398816,14.19918621,.00016245,98.6765,98.6560,85.3751,274.7611,0,U,65815,999,3589,.51977704E-4,.67E-6,0
HULIANWANG DIGUI-82,2025-220A,2026-06-06T23:09:56.254752,13.24407328,.00012591,86.4978,47.3114,81.4904,278.6373,0,U,65817,999,3356,.1142802E-3,.64E-6,0
HULIANWANG DIGUI-83,2025-220B,2026-06-06T22:59:09.931776,13.24407650,.00012821,86.5001,47.3647,82.9821,277.1459,0,U,65818,999,3356,.14246837E-3,.76E-6,0
HULIANWANG DIGUI-84,2025-220C,2026-06-06T22:48:13.622688,13.24407404,.00012916,86.4938,47.2017,80.7568,279.3712,0,U,65819,999,3356,.14609109E-3,.77E-6,0
