KUIPER-00174            
1 65787U 25217AB  26157.83882989  .00001213  00000+0  18810-3 0  9993
2 65787  51.9047 353.9356 0000645 103.6828 256.4206 14.79926829 38281
KUIPER-00176            
1 65788U 25217AC  26157.28240957  .00001792  00000+0  26392-3 0  9992
2 65788  51.8999  11.3408 0000504 113.6443 246.4573 14.79938603 37994
STARLINK-35330          
1 65791U 25218A   26157.86508440  .00008951  00000+0  62336-3 0  9997
2 65791  97.3960  20.1005 0001487  99.5318 260.6078 15.05663496 38383
STARLINK-35373          
1 65792U 25218B   26157.56603262  .00012567  00000+0  87332-3 0  9994
2 65792  97.3951  19.8943 0002113  58.4630 301.6804 15.05654228 38340
STARLINK-35383          
1 65793U 25218C   26157.61588115  .00003465  00000+0  24395-3 0  9997
2 65793  97.3944  19.9846 0002427  89.0830 271.0675 15.05659166 38359
STARLINK-35378          
1 65794U 25218D   26157.85678472  .00005294  00000+0  37058-3 0  9992
2 65794  97.3976  20.1172 0001913  54.6930 305.4476 15.05655705 38388
STARLINK-35406          
1 65795U 25218E   26157.58264586  .00004359  00000+0  30590-3 0  9995
2 65795  97.3977  19.8757 0001827  65.9284 294.2135 15.05654352 38345
STARLINK-35390          
1 65796U 25218F   26157.62418777  .00004104  00000+0  28817-3 0  9991
2 65796  97.3951  19.9740 0002571  79.2115 280.9402 15.05661953 38354
STARLINK-35412          
1 65797U 25218G   26157.87340995  .00007496  00000+0  52291-3 0  9995
2 65797  97.3954  20.2475 0002381  79.9094 280.2402 15.05653982 38390
STARLINK-35414          
1 65798U 25218H   26157.57432661  .00040498  00000+0  27893-2 0  9993
2 65798  97.4025  19.8830 0001361  92.7251 267.4132 15.05724881 38344
STARLINK-35357          
1 65799U 25218J   26157.57987630  .00006129  00000+0  42827-3 0  9993
2 65799  97.3949  19.8760 0002478  92.7743 267.3768 15.05662705 38347
STARLINK-35300          
1 65800U 25218K   26157.86232041  .00003615  00000+0  25435-3 0  9990
2 65800  97.3941  20.1060 0002090  89.9736 270.1731 15.05660184 38385
STARLINK-35296          
1 65801U 25218L   26157.61311163  .00003594  00000+0  25289-3 0  9990
2 65801  97.3951  19.9858 0002319  92.7994 267.3498 15.05660463 38355
STARLINK-34919          
1 65802U 25218M   26157.62972345  .00004414  00000+0  30965-3 0  9996
2 65802  97.3946  19.9619 0002062  91.6045 268.5419 15.05661025 38356
STARLINK-35286          
1 65803U 25218N   26157.85955338  .00002053  00000+0  14624-3 0  9996
2 65803  97.3954  20.1098 0002147  89.9480 270.1993 15.05655891 38381
STARLINK-35266          
1 65804U 25218P   26157.85401728  .00002106  00000+0  14986-3 0  9996
2 65804  97.3954  20.1178 0002804  80.9504 279.2040 15.05657826 38382
STARLINK-35273          
1 65805U 25218Q   26157.85124600  .00003943  00000+0  27709-3 0  9995
2 65805  97.3958  20.1228 0001745  71.3025 288.8392 15.05658088 38385
STARLINK-35047          
1 65806U 25218R   26157.57157260 -.00003567  00000+0 -24340-3 0  9995
2 65806  97.3990  19.8922 0001620  40.1224 320.0123 15.05643256 38343
STARLINK-35285          
1 65807U 25218S   26157.57710557  .00006305  00000+0  44043-3 0  9993
2 65807  97.3953  19.8776 0001636  58.7935 301.3453 15.05661759 38347
STARLINK-34580          
1 65808U 25218T   26157.63526089  .00001956  00000+0  13948-3 0  9993
2 65808  97.3946  19.9520 0002101  91.6744 268.4724 15.05665225 38357
STARLINK-35289          
1 65809U 25218U   26157.62695447  .00004970  00000+0  34807-3 0  9994
2 65809  97.3937  19.9677 0002637  81.6988 278.4539 15.05666508 38354
STARLINK-35268          
1 65810U 25218V   26157.61864246 -.00002463  00000+0 -16669-3 0  9993
2 65810  97.3968  19.9802 0003310  61.7829 298.3733 15.05651661 38353
STARLINK-35224          
1 65811U 25218W   26157.62143408  .00006117  00000+0  42761-3 0  9995
2 65811  97.3952  19.9744 0002594  91.0293 269.1232 15.05647909 38356
STARLINK-35271          
1 65812U 25218X   26157.61034266  .00004777  00000+0  33477-3 0  9990
2 65812  97.3969  19.9928 0002485  87.1732 272.9780 15.05662822 38353
STARLINK-35215          
1 65813U 25218Y   26157.87064054  .00002358  00000+0  16731-3 0  9994
2 65813  97.3939  20.2503 0002380  84.7704 275.3795 15.05656865 38398
STARLINK-35157          
1 65814U 25218Z   26157.93434156 -.00014784  00000+0 -10228-2 0  9998
2 65814  97.3962  20.3194 0002656 102.3541 257.7984 15.05644643 38401
FENGYUN 3H              
1 65815U 25219A   26157.68251619  .00000067  00000+0  51978-4 0  9999
2 65815  98.6765  98.6560 0001624  85.3751 274.7611 14.19918621 35899
HULIANWANG DIGUI-82     
1 65817U 25220A   26157.96523443  .00000064  00000+0  11428-3 0  9993
2 65817  86.4978  47.3114 0001259  81.4904 278.6373 13.24407328 33561
HULIANWANG DIGUI-83     
1 65818U 25220B   26157.95775384  .00000076  00000+0  14247-3 0  9991
2 65818  86.5001  47.3647 0001282  82.9821 277.1459 13.24407650 33568
HULIANWANG DIGUI-84     
1 65819U 25220C   26157.95015767  .00000077  00000+0  14609-3 0  9997
2 65819  86.4938  47.2017 0001291  80.7568 279.3712 13.24407404 33564
